{"spkid": "20350751", "covariance": {"labels": ["e", "q", "tp", "node", "peri", "i", "A2"], "elements": [{"label": "e", "name": "e", "sigma": 1.06535764935037e-08, "value": ".25632249992616", "title": "eccentricity", "units": null}, {"units": "au", "value": ".7962711873318881", "title": "perihelion distance", "sigma": 1.13993979798999e-08, "name": "q", "label": "q"}, {"label": "tp", "name": "tp", "sigma": 4.38122035313332e-06, "value": "2458123.740662376441", "title": "time of perihelion passage", "units": "TDB"}, {"label": "node", "name": "om", "sigma": 0.000123555041019425, "units": "deg", "value": "162.2044681609589", "title": "longitude of the ascending node"}, {"label": "peri", "units": "deg", "value": "119.0889863344457", "title": "argument of perihelion", "sigma": 0.000123497617725839, "name": "w"}, {"title": "inclination", "value": ".5726941891463176", "units": "deg", "name": "i", "sigma": 1.9735505490129e-06, "label": "i"}], "data": [["1.134986921029352E-16", "-1.2130640494114E-16", "-2.303153840077015E-14", "1.785782674795136E-14", "-2.894078416040113E-14", "3.073580850209672E-16", "4.555239260880579E-24"], ["-1.2130640494114E-16", "1.29946274304147E-16", "2.344190237226791E-14", "-1.858324082605803E-14", "3.03094853650874E-14", "-3.621111866626623E-16", "-3.242115438360335E-24"], ["-2.303153840077015E-14", "2.344190237226791E-14", "1.919509178270967E-11", "1.681385369038933E-11", "-3.642588789242505E-12", "-1.316752911354366E-13", "-9.34886365735827E-21"], ["1.785782674795136E-14", "-1.858324082605803E-14", "1.681385369038933E-11", "1.526584816131187E-8", "-1.525222811962567E-8", "1.12035817751249E-10", "5.798658232381163E-21"], ["-2.894078416040113E-14", "3.03094853650874E-14", "-3.642588789242505E-12", "-1.525222811962567E-8", "1.525166158395747E-8", "-1.122034336784388E-10", "-4.871219946157627E-21"], ["3.073580850209672E-16", "-3.621111866626623E-16", "-1.316752911354366E-13", "1.12035817751249E-10", "-1.122034336784388E-10", "3.894901769509125E-12", "1.56114587592588E-22"], ["4.555239260880579E-24", "-3.242115438360335E-24", "-9.34886365735827E-21", "5.798658232381163E-21", "-4.871219946157627E-21", "1.56114587592588E-22", "3.006694085045523E-29"]], "epoch": "2458131.5"}, "elements": [{"label": "e", "units": null, "value": ".2566891669273958", "title": "eccentricity", "sigma": "1.0624E-8", "name": "e"}, {"units": "au", "title": "semi-major axis", "value": "1.0715703942267", "sigma": "2.3495E-9", "name": "a", "label": "a"}, {"label": "q", "units": "au", "value": ".7965098824285871", "title": "perihelion distance", "sigma": "1.1315E-8", "name": "q"}, {"label": "i", "units": "deg", "title": "inclination; angle with respect to x-y ecliptic plane", "value": ".5744402234078143", "sigma": "1.9671E-6", "name": "i"}, {"sigma": ".00012386", "name": "om", "units": "deg", "title": "longitude of the ascending node", "value": "161.7524843491061", "label": "node"}, {"sigma": ".00012382", "name": "w", "title": "argument of perihelion", "value": "119.3664504797581", "units": "deg", "label": "peri"}, {"label": "M", "name": "ma", "sigma": "5.0767E-6", "title": "mean anomaly", "value": "215.4541522084362", "units": "deg"}, {"sigma": "6.1113E-6", "name": "tp", "units": "TDB", "value": "2461363.179416556501", "title": "time of perihelion passage", "label": "tp"}, {"units": "d", "value": "405.162727640513", "title": "sidereal orbital period", "sigma": "1.3325E-6", "name": "per", "label": "period"}, {"label": "n", "sigma": "2.9223E-9", "name": "n", "value": ".8885318797621871", "title": "mean motion", "units": "deg/d"}, {"value": "1.346630906024813", "title": "aphelion distance", "units": "au", "name": "ad", "sigma": "2.9526E-9", "label": "Q"}], "epoch": "2461200.5"}